[{"OBJECT_NAME":"ONEWEB-0318","OBJECT_ID":"2021-075AF","EPOCH":"2026-03-09T19:59:52.260000","MEAN_MOTION":13.18685721,"ECCENTRICITY":0.00016348,"INCLINATION":87.9252,"RA_OF_ASC_NODE":355.1882,"ARG_OF_PERICENTER":70.4888,"MEAN_ANOMALY":289.6421,"EPHEMERIS_TYPE":0,"CLASSIFICATION_TYPE":"U","NORAD_CAT_ID":49104,"ELEMENT_SET_NO":999,"REV_AT_EPOCH":22407,"BSTAR":0.00018467866,"MEAN_MOTION_DOT":8.6e-7,"MEAN_MOTION_DDOT":0},{"OBJECT_NAME":"SCOUT A R\/B","OBJECT_ID":"1970-067B","EPOCH":"2026-03-09T22:54:58.932864","MEAN_MOTION":13.49659171,"ECCENTRICITY":0.01746933,"INCLINATION":90.0072,"RA_OF_ASC_NODE":234.1093,"ARG_OF_PERICENTER":132.7059,"MEAN_ANOMALY":341.188,"EPHEMERIS_TYPE":0,"CLASSIFICATION_TYPE":"U","NORAD_CAT_ID":4515,"ELEMENT_SET_NO":999,"REV_AT_EPOCH":73195,"BSTAR":0.00023152136,"MEAN_MOTION_DOT":1.72e-6,"MEAN_MOTION_DDOT":0}]
